start=new Date('2021-11-28T00:00:00.000Z').valueOf();
sats=[{"PERIOD":"95.592","ARG_OF_PERICENTER":"74.4243","EPOCH":"2021-11-27T14:44:26.868768","REV_AT_EPOCH":"10143","MEAN_MOTION_DOT":"-0.00000303","RCS_SIZE":"LARGE","TLE_LINE1":"1 45099U 20006BH  21331.61419987 -.00000303  00000-0 -14279-5 0  9996","MEAN_ELEMENT_THEORY":"SGP4","INCLINATION":"53.0566","OBJECT_ID":"2020-006BH","EPHEMERIS_TYPE":"0","TLE_LINE2":"2 45099  53.0566  63.5266 0001368  74.4243 285.6897 15.06394416101437","CENTER_NAME":"EARTH","PERIAPSIS":"546.283","REF_FRAME":"TEME","APOAPSIS":"548.178","LAUNCH_DATE":"2020-01-29","GP_ID":"190620423","MEAN_MOTION_DDOT":"0.0000000000000","ELEMENT_SET_NO":"999","ECCENTRICITY":"0.00013680","OBJECT_TYPE":"PAYLOAD","BSTAR":"-0.00000142790000","OBJECT_NAME":"STARLINK-1186","TIME_SYSTEM":"UTC","SITE":"AFETR","RA_OF_ASC_NODE":"63.5266","FILE":"3225675","NORAD_CAT_ID":"45099","DECAY_DATE":null,"COUNTRY_CODE":"US","SEMIMAJOR_AXIS":"6925.366","CLASSIFICATION_TYPE":"U","MEAN_ANOMALY":"285.6897","MEAN_MOTION":"15.06394416"},{"FILE":"3225675","RA_OF_ASC_NODE":"63.3939","NORAD_CAT_ID":"45100","COUNTRY_CODE":"US","DECAY_DATE":null,"MEAN_ANOMALY":"280.9730","MEAN_MOTION":"15.06400244","CLASSIFICATION_TYPE":"U","SEMIMAJOR_AXIS":"6925.348","LAUNCH_DATE":"2020-01-29","GP_ID":"190620673","MEAN_MOTION_DDOT":"0.0000000000000","ECCENTRICITY":"0.00011200","ELEMENT_SET_NO":"999","OBJECT_TYPE":"PAYLOAD","BSTAR":"-0.00000651100000","SITE":"AFETR","TIME_SYSTEM":"UTC","OBJECT_NAME":"STARLINK-1193","INCLINATION":"53.0543","OBJECT_ID":"2020-006BJ","EPHEMERIS_TYPE":"0","TLE_LINE2":"2 45100  53.0543  63.3939 0001120  79.1385 280.9730 15.06400244101436","APOAPSIS":"547.988","REF_FRAME":"TEME","CENTER_NAME":"EARTH","PERIAPSIS":"546.437","ARG_OF_PERICENTER":"79.1385","PERIOD":"95.592","EPOCH":"2021-11-27T15:26:54.020256","MEAN_MOTION_DOT":"-0.00000378","REV_AT_EPOCH":"10143","TLE_LINE1":"1 45100U 20006BJ  21331.64368079 -.00000378  00000-0 -65110-5 0  9999","MEAN_ELEMENT_THEORY":"SGP4","RCS_SIZE":"LARGE"},{"MEAN_MOTION_DDOT":"0.0000000000000","LAUNCH_DATE":"2020-01-29","GP_ID":"190621409","ECCENTRICITY":"0.00011190","ELEMENT_SET_NO":"999","BSTAR":"0.00002536100000","OBJECT_TYPE":"PAYLOAD","SITE":"AFETR","TIME_SYSTEM":"UTC","OBJECT_NAME":"STARLINK-1194","RA_OF_ASC_NODE":"63.4126","FILE":"3225675","NORAD_CAT_ID":"45101","COUNTRY_CODE":"US","DECAY_DATE":null,"MEAN_MOTION":"15.06392211","MEAN_ANOMALY":"274.0042","CLASSIFICATION_TYPE":"U","SEMIMAJOR_AXIS":"6925.372","EPOCH":"2021-11-27T15:21:36.179712","PERIOD":"95.593","ARG_OF_PERICENTER":"86.1075","MEAN_MOTION_DOT":"0.00000096","REV_AT_EPOCH":"10143","MEAN_ELEMENT_THEORY":"SGP4","TLE_LINE1":"1 45101U 20006BK  21331.64000208  .00000096  00000-0  25361-4 0  9995","RCS_SIZE":"LARGE","INCLINATION":"53.0556","OBJECT_ID":"2020-006BK","TLE_LINE2":"2 45101  53.0556  63.4126 0001119  86.1075 274.0042 15.06392211101436","EPHEMERIS_TYPE":"0","APOAPSIS":"548.012","REF_FRAME":"TEME","PERIAPSIS":"546.462","CENTER_NAME":"EARTH"},{"MEAN_MOTION_DOT":"0.00001273","REV_AT_EPOCH":"10143","TLE_LINE1":"1 45102U 20006BL  21331.66211132  .00001273  00000-0  10431-3 0  9997","MEAN_ELEMENT_THEORY":"SGP4","RCS_SIZE":"LARGE","ARG_OF_PERICENTER":"83.4554","PERIOD":"95.592","EPOCH":"2021-11-27T15:53:26.418048","EPHEMERIS_TYPE":"0","TLE_LINE2":"2 45102  53.0564  63.3323 0001245  83.4554 276.6576 15.06400644101436","APOAPSIS":"548.074","REF_FRAME":"TEME","CENTER_NAME":"EARTH","PERIAPSIS":"546.349","INCLINATION":"53.0564","OBJECT_ID":"2020-006BL","OBJECT_TYPE":"PAYLOAD","BSTAR":"0.00010431000000","SITE":"AFETR","TIME_SYSTEM":"UTC","OBJECT_NAME":"STARLINK-1195","LAUNCH_DATE":"2020-01-29","GP_ID":"190621168","MEAN_MOTION_DDOT":"0.0000000000000","ECCENTRICITY":"0.00012450","ELEMENT_SET_NO":"999","COUNTRY_CODE":"US","DECAY_DATE":null,"MEAN_ANOMALY":"276.6576","MEAN_MOTION":"15.06400644","CLASSIFICATION_TYPE":"U","SEMIMAJOR_AXIS":"6925.347","FILE":"3225675","NORAD_CAT_ID":"45102","RA_OF_ASC_NODE":"63.3323"},{"MEAN_MOTION":"15.05585429","MEAN_ANOMALY":"289.8425","CLASSIFICATION_TYPE":"U","SEMIMAJOR_AXIS":"6927.846","COUNTRY_CODE":"US","DECAY_DATE":null,"NORAD_CAT_ID":"45103","FILE":"3225405","RA_OF_ASC_NODE":"64.7325","SITE":"AFETR","TIME_SYSTEM":"UTC","OBJECT_NAME":"STARLINK-1196","BSTAR":"0.00000460970000","OBJECT_TYPE":"PAYLOAD","ECCENTRICITY":"0.00013600","ELEMENT_SET_NO":"999","MEAN_MOTION_DDOT":"0.0000000000000","LAUNCH_DATE":"2020-01-29","GP_ID":"190592092","REF_FRAME":"TEME","APOAPSIS":"550.653","PERIAPSIS":"548.769","CENTER_NAME":"EARTH","TLE_LINE2":"2 45103  53.0553  64.7325 0001360  70.2710 289.8425 15.05585429101396","EPHEMERIS_TYPE":"0","OBJECT_ID":"2020-006BM","INCLINATION":"53.0553","MEAN_ELEMENT_THEORY":"SGP4","TLE_LINE1":"1 45103U 20006BM  21331.36122538 -.00000212  00000-0  46097-5 0  9998","RCS_SIZE":"LARGE","MEAN_MOTION_DOT":"-0.00000212","REV_AT_EPOCH":"10139","EPOCH":"2021-11-27T08:40:09.872832","PERIOD":"95.644","ARG_OF_PERICENTER":"70.2710"},{"CENTER_NAME":"EARTH","PERIAPSIS":"545.815","APOAPSIS":"548.693","REF_FRAME":"TEME","EPHEMERIS_TYPE":"0","TLE_LINE2":"2 45178  53.0541 222.9351 0002078  70.2074 289.9139 15.06386890 99203","OBJECT_ID":"2020-012A","INCLINATION":"53.0541","RCS_SIZE":"LARGE","TLE_LINE1":"1 45178U 20012A   21331.74690160 -.00000269  00000-0  88674-6 0  9990","MEAN_ELEMENT_THEORY":"SGP4","REV_AT_EPOCH":"9920","MEAN_MOTION_DOT":"-0.00000269","PERIOD":"95.593","ARG_OF_PERICENTER":"70.2074","EPOCH":"2021-11-27T17:55:32.298240","CLASSIFICATION_TYPE":"U","SEMIMAJOR_AXIS":"6925.389","MEAN_ANOMALY":"289.9139","MEAN_MOTION":"15.06386890","DECAY_DATE":null,"COUNTRY_CODE":"US","FILE":"3225675","NORAD_CAT_ID":"45178","RA_OF_ASC_NODE":"222.9351","TIME_SYSTEM":"UTC","OBJECT_NAME":"STARLINK-1138","SITE":"AFETR","OBJECT_TYPE":"PAYLOAD","BSTAR":"0.00000088674000","ELEMENT_SET_NO":"999","ECCENTRICITY":"0.00020780","LAUNCH_DATE":"2020-02-17","GP_ID":"190620917","MEAN_MOTION_DDOT":"0.0000000000000"},{"MEAN_MOTION_DDOT":"0.0000000000000","LAUNCH_DATE":"2020-02-17","GP_ID":"190621675","ECCENTRICITY":"0.00017930","ELEMENT_SET_NO":"999","BSTAR":"0.00006429500000","OBJECT_TYPE":"PAYLOAD","SITE":"AFETR","TIME_SYSTEM":"UTC","OBJECT_NAME":"STARLINK-1143","FILE":"3225675","NORAD_CAT_ID":"45179","RA_OF_ASC_NODE":"222.6370","COUNTRY_CODE":"US","DECAY_DATE":null,"MEAN_MOTION":"15.06396310","MEAN_ANOMALY":"286.6365","SEMIMAJOR_AXIS":"6925.360","CLASSIFICATION_TYPE":"U","EPOCH":"2021-11-27T19:36:22.015008","PERIOD":"95.592","ARG_OF_PERICENTER":"73.4821","MEAN_MOTION_DOT":"0.00000676","REV_AT_EPOCH":"9927","MEAN_ELEMENT_THEORY":"SGP4","TLE_LINE1":"1 45179U 20012B   21331.81692147  .00000676  00000-0  64295-4 0  9998","RCS_SIZE":"LARGE","INCLINATION":"53.0530","OBJECT_ID":"2020-012B","TLE_LINE2":"2 45179  53.0530 222.6370 0001793  73.4821 286.6365 15.06396310 99278","EPHEMERIS_TYPE":"0","REF_FRAME":"TEME","APOAPSIS":"548.467","PERIAPSIS":"545.983","CENTER_NAME":"EARTH"},{"BSTAR":"0.00000508270000","OBJECT_TYPE":"PAYLOAD","TIME_SYSTEM":"UTC","OBJECT_NAME":"STARLINK-1192","SITE":"AFETR","MEAN_MOTION_DDOT":"0.0000000000000","LAUNCH_DATE":"2020-02-17","GP_ID":"190620431","ELEMENT_SET_NO":"999","ECCENTRICITY":"0.00019570","DECAY_DATE":null,"COUNTRY_CODE":"US","SEMIMAJOR_AXIS":"6925.360","CLASSIFICATION_TYPE":"U","MEAN_MOTION":"15.06396349","MEAN_ANOMALY":"280.0279","RA_OF_ASC_NODE":"222.9803","FILE":"3225675","NORAD_CAT_ID":"45180","REV_AT_EPOCH":"9926","MEAN_MOTION_DOT":"-0.00000206","RCS_SIZE":"LARGE","MEAN_ELEMENT_THEORY":"SGP4","TLE_LINE1":"1 45180U 20012C   21331.74226845 -.00000206  00000-0  50827-5 0  9997","EPOCH":"2021-11-27T17:48:51.994080","ARG_OF_PERICENTER":"80.0931","PERIOD":"95.592","TLE_LINE2":"2 45180  53.0500 222.9803 0001957  80.0931 280.0279 15.06396349 99262","EPHEMERIS_TYPE":"0","PERIAPSIS":"545.869","CENTER_NAME":"EARTH","APOAPSIS":"548.580","REF_FRAME":"TEME","INCLINATION":"53.0500","OBJECT_ID":"2020-012C"},{"ARG_OF_PERICENTER":"70.3849","PERIOD":"95.592","EPOCH":"2021-11-27T17:39:36.040320","RCS_SIZE":"LARGE","TLE_LINE1":"1 45181U 20012D   21331.73583380 -.00000103  00000-0  11980-4 0  9999","MEAN_ELEMENT_THEORY":"SGP4","REV_AT_EPOCH":"9926","MEAN_MOTION_DOT":"-0.00000103","OBJECT_ID":"2020-012D","INCLINATION":"53.0527","CENTER_NAME":"EARTH","PERIAPSIS":"545.817","REF_FRAME":"TEME","APOAPSIS":"548.614","EPHEMERIS_TYPE":"0","TLE_LINE2":"2 45181  53.0527 222.9837 0002019  70.3849 289.7358 15.06399363 99262","ELEMENT_SET_NO":"999","ECCENTRICITY":"0.00020190","LAUNCH_DATE":"2020-02-17","GP_ID":"190620681","MEAN_MOTION_DDOT":"0.0000000000000","OBJECT_NAME":"STARLINK-1200","TIME_SYSTEM":"UTC","SITE":"AFETR","OBJECT_TYPE":"PAYLOAD","BSTAR":"0.00001198000000","FILE":"3225675","NORAD_CAT_ID":"45181","RA_OF_ASC_NODE":"222.9837","CLASSIFICATION_TYPE":"U","SEMIMAJOR_AXIS":"6925.351","MEAN_ANOMALY":"289.7358","MEAN_MOTION":"15.06399363","DECAY_DATE":null,"COUNTRY_CODE":"US"},{"EPOCH":"2021-11-27T16:33:15.698592","ARG_OF_PERICENTER":"77.2137","PERIOD":"95.593","RCS_SIZE":"LARGE","MEAN_ELEMENT_THEORY":"SGP4","TLE_LINE1":"1 45182U 20012E   21331.68976503  .00000796  00000-0  72391-4 0  9997","REV_AT_EPOCH":"9938","MEAN_MOTION_DOT":"0.00000796","OBJECT_ID":"2020-012E","INCLINATION":"53.0551","PERIAPSIS":"545.766","CENTER_NAME":"EARTH","APOAPSIS":"548.719","REF_FRAME":"TEME","TLE_LINE2":"2 45182  53.0551 203.2078 0002132  77.2137 282.9090 15.06390437 99385","EPHEMERIS_TYPE":"0","ELEMENT_SET_NO":"999","ECCENTRICITY":"0.00021320","MEAN_MOTION_DDOT":"0.0000000000000","LAUNCH_DATE":"2020-02-17","GP_ID":"190621417","OBJECT_NAME":"STARLINK-1201","TIME_SYSTEM":"UTC","SITE":"AFETR","BSTAR":"0.00007239100000","OBJECT_TYPE":"PAYLOAD","FILE":"3225675","RA_OF_ASC_NODE":"203.2078","NORAD_CAT_ID":"45182","CLASSIFICATION_TYPE":"U","SEMIMAJOR_AXIS":"6925.378","MEAN_MOTION":"15.06390437","MEAN_ANOMALY":"282.9090","DECAY_DATE":null,"COUNTRY_CODE":"US"}];
